NORAD_CAT_ID,OBJECT_NAME,OBJECT_TYPE,EPOCH,MEAN_MOTION,ECCENTRICITY,INCLINATION,RA_OF_ASC_NODE,ARG_OF_PERICENTER,MEAN_ANOMALY,BSTAR,MEAN_MOTION_DOT,MEAN_MOTION_DDOT,TLE_LINE0,TLE_LINE1,TLE_LINE2,SEMIMAJOR_AXIS,PERIOD,APOGEE,PERIGEE,DECAYED
51971.0,STARLINK-3669,PAYLOAD,2024-04-27 12:10:14,15.05598166,0.000129,53.0533,204.41,81.1905,278.923,0.00010681,1.278e-05,0.0,0 STARLINK-3669,1 51971U 22025R   24118.50711450  .00001278  00000-0  10681-3 0  9990,2 51971  53.0533 204.4100 0001290  81.1905 278.9230 15.05598166119425,6927.807,95.643,550.566,548.778,0.0
51971.0,STARLINK-3669,PAYLOAD,2024-04-27 23:19:23,15.05585563,0.000168,53.0553,202.3253,82.2679,277.8501,4.1997e-05,3.33e-06,0.0,0 STARLINK-3669,1 51971U 22025R   24118.97180088  .00000333  00000-0  41997-4 0  9994,2 51971  53.0553 202.3253 0001680  82.2679 277.8501 15.05585563119499,6927.846,95.644,550.875,548.547,0.0
51971.0,STARLINK-3669,PAYLOAD,2024-04-28 12:04:08,15.05563148,0.000144,53.0552,199.945,96.186,263.9293,-0.00037805,-5.78e-05,0.0,0 STARLINK-3669,1 51971U 22025R   24119.50287791 -.00005780  00000-0 -37805-3 0  9998,2 51971  53.0552 199.9450 0001440  96.1860 263.9293 15.05563148119576,6927.915,95.645,550.777,548.782,0.0
51971.0,STARLINK-3669,PAYLOAD,2024-04-28 15:15:19,15.0556373,0.0001353,53.0532,199.347,97.9833,262.1309,-0.00024022,-3.776e-05,0.0,0 STARLINK-3669,1 51971U 22025R   24119.63564523 -.00003776  00000-0 -24022-3 0  9993,2 51971  53.0532 199.3470 0001353  97.9833 262.1309 15.05563730118487,6927.913,95.645,550.715,548.84,0.0
51971.0,STARLINK-3669,PAYLOAD,2024-04-29 05:35:39,15.05578916,0.0001216,53.0553,196.6714,85.6483,274.4644,-0.0001115,-1.903e-05,0.0,0 STARLINK-3669,1 51971U 22025R   24120.23309147 -.00001903  00000-0 -11150-3 0  9998,2 51971  53.0553 196.6714 0001216  85.6483 274.4644 15.05578916119687,6927.866,95.644,550.574,548.889,0.0
51971.0,STARLINK-3669,PAYLOAD,2024-04-29 11:58:00,15.05590867,0.0001203,53.0541,195.4806,83.5896,276.5229,-3.866e-06,-3.36e-06,0.0,0 STARLINK-3669,1 51971U 22025R   24120.49861294 -.00000336  00000-0 -38660-5 0  9998,2 51971  53.0541 195.4806 0001203  83.5896 276.5229 15.05590867119720,6927.83,95.644,550.528,548.861,0.0
51971.0,STARLINK-3669,PAYLOAD,2024-04-29 21:31:32,15.05591697,0.0001229,53.0541,193.6951,83.1043,277.0085,1.5259e-06,-2.57e-06,0.0,0 STARLINK-3669,1 51971U 22025R   24120.89690776 -.00000257  00000-0  15259-5 0  9997,2 51971  53.0541 193.6951 0001229  83.1043 277.0085 15.05591697118670,6927.827,95.643,550.543,548.841,0.0
51971.0,STARLINK-3669,PAYLOAD,2024-04-30 05:29:32,15.05545616,0.0001258,53.0541,192.2072,101.2545,258.8585,0.00089478,0.00012769,0.0,0 STARLINK-3669,1 51971U 22025R   24121.22884403  .00012769  00000-0  89478-3 0  9999,2 51971  53.0541 192.2072 0001258 101.2545 258.8585 15.05545616119831,6927.968,95.646,550.705,548.962,0.0
51971.0,STARLINK-3669,PAYLOAD,2024-04-30 11:51:52,15.05589327,0.0001173,53.0529,191.0171,90.8311,269.2813,0.00062802,8.885e-05,0.0,0 STARLINK-3669,1 51971U 22025R   24121.49436225  .00008885  00000-0  62802-3 0  9999,2 51971  53.0529 191.0171 0001173  90.8311 269.2813 15.05589327119875,6927.834,95.644,550.512,548.887,0.0
51971.0,STARLINK-3669,PAYLOAD,2024-04-30 21:25:25,15.05594921,0.0001217,53.0529,189.2318,90.9598,269.153,0.00034186,4.707e-05,0.0,0 STARLINK-3669,1 51971U 22025R   24121.89265364  .00004707  00000-0  34186-3 0  9990,2 51971  53.0529 189.2318 0001217  90.9598 269.1530 15.05594921118829,6927.817,95.643,550.525,548.839,0.0
51971.0,STARLINK-3669,PAYLOAD,2024-05-01 03:47:47,15.0559125,0.0001146,53.0532,188.0419,94.4658,265.6461,0.00037309,5.162e-05,0.0,0 STARLINK-3669,1 51971U 22025R   24122.15818554  .00005162  00000-0  37309-3 0  9991,2 51971  53.0532 188.0419 0001146  94.4658 265.6461 15.05591250119972,6927.828,95.643,550.487,548.899,0.0
51971.0,STARLINK-3669,PAYLOAD,2024-05-01 21:19:17,15.05583435,0.0001193,53.0526,184.7667,84.7038,275.4086,-6.0839e-05,-1.165e-05,0.0,0 STARLINK-3669,1 51971U 22025R   24122.88839564 -.00001165  00000-0 -60839-4 0  9991,2 51971  53.0526 184.7667 0001193  84.7038 275.4086 15.05583435118976,6927.852,95.644,550.544,548.891,0.0
51971.0,STARLINK-3669,PAYLOAD,2024-05-02 03:41:39,15.05581249,0.0001599,53.0539,183.5754,87.8443,272.2729,-4.5061e-05,-9.36e-06,0.0,0 STARLINK-3669,1 51971U 22025R   24123.15393136 -.00000936  00000-0 -45061-4 0  9997,2 51971  53.0539 183.5754 0001599  87.8443 272.2729 15.05581249120128,6927.859,95.644,550.832,548.616,0.0
51971.0,STARLINK-3669,PAYLOAD,2024-05-02 11:39:37,15.0557891,0.0001313,53.0535,182.0875,92.2514,267.8625,-6.0611e-05,-1.162e-05,0.0,0 STARLINK-3669,1 51971U 22025R   24123.48585137 -.00001162  00000-0 -60611-4 0  9997,2 51971  53.0535 182.0875 0001313  92.2514 267.8625 15.05578910119062,6927.866,95.644,550.641,548.822,0.0
51971.0,STARLINK-3669,PAYLOAD,2024-05-03 03:35:31,15.05589173,0.0001344,53.0532,179.1102,85.4147,274.6995,0.00012606,1.558e-05,0.0,0 STARLINK-3669,1 51971U 22025R   24124.14966679  .00001558  00000-0  12606-3 0  9992,2 51971  53.0532 179.1102 0001344  85.4147 274.6995 15.05589173120273,6927.835,95.644,550.631,548.769,0.0
51971.0,STARLINK-3669,PAYLOAD,2024-05-03 09:57:52,15.0559838,0.0001331,53.0526,177.9197,85.6091,274.505,0.00020852,2.762e-05,0.0,0 STARLINK-3669,1 51971U 22025R   24124.41518952  .00002762  00000-0  20852-3 0  9999,2 51971  53.0526 177.9197 0001331  85.6091 274.5050 15.05598380120318,6927.806,95.643,550.594,548.749,0.0
51971.0,STARLINK-3669,PAYLOAD,2024-05-03 21:07:01,15.05581776,0.0001367,53.051,175.8361,86.5047,273.6098,0.00017573,2.282e-05,0.0,0 STARLINK-3669,1 51971U 22025R   24124.87987780  .00002282  00000-0  17573-3 0  9991,2 51971  53.0510 175.8361 0001367  86.5047 273.6098 15.05581776120381,6927.857,95.644,550.669,548.775,0.0
51971.0,STARLINK-3669,PAYLOAD,2024-05-04 03:29:24,15.05576999,0.0001964,53.0529,174.6453,91.8026,268.3187,0.00015416,1.967e-05,0.0,0 STARLINK-3669,1 51971U 22025R   24125.14541710  .00001967  00000-0  15416-3 0  9994,2 51971  53.0529 174.6453 0001964  91.8026 268.3187 15.05576999120425,6927.872,95.644,551.098,548.376,0.0
51971.0,STARLINK-3669,PAYLOAD,2024-05-04 13:02:57,15.05572512,0.0001403,53.0531,172.8602,95.1023,265.0126,-8.7999e-05,-1.561e-05,0.0,0 STARLINK-3669,1 51971U 22025R   24125.54371767 -.00001561  00000-0 -87999-4 0  9999,2 51971  53.0531 172.8602 0001403  95.1023 265.0126 15.05572512120486,6927.886,95.645,550.723,548.779,0.0
51971.0,STARLINK-3669,PAYLOAD,2024-05-05 08:10:03,15.05576835,0.0001354,53.0528,169.2887,96.4031,263.7112,0.00059029,8.331e-05,0.0,0 STARLINK-3669,1 51971U 22025R   24126.34031644  .00008331  00000-0  59029-3 0  9997,2 51971  53.0528 169.2887 0001354  96.4031 263.7112 15.05576835119496,6927.873,95.644,550.676,548.8,0.0
51971.0,STARLINK-3669,PAYLOAD,2024-05-05 19:19:11,15.05587089,0.0001375,53.0531,167.2056,96.6545,263.46,0.00072813,0.00010347,0.0,0 STARLINK-3669,1 51971U 22025R   24126.80499623  .00010347  00000-0  72813-3 0  9999,2 51971  53.0531 167.2056 0001375  96.6545 263.4600 15.05587089120675,6927.841,95.644,550.659,548.754,0.0
51971.0,STARLINK-3669,PAYLOAD,2024-05-06 09:39:30,15.05607465,0.0001325,53.0526,164.5266,96.7435,263.3704,0.0010419,0.00014944,0.0,0 STARLINK-3669,1 51971U 22025R   24127.40243442  .00014944  00000-0  10419-2 0  9992,2 51971  53.0526 164.5266 0001325  96.7435 263.3704 15.05607465119657,6927.779,95.642,550.562,548.726,0.0
51971.0,STARLINK-3669,PAYLOAD,2024-05-06 19:13:02,15.05602497,0.0001279,53.0519,162.7414,95.6829,264.4306,0.00048312,6.771e-05,0.0,0 STARLINK-3669,1 51971U 22025R   24127.80072754  .00006771  00000-0  48312-3 0  9995,2 51971  53.0519 162.7414 0001279  95.6829 264.4306 15.05602497119714,6927.794,95.643,550.545,548.773,0.0
51971.0,STARLINK-3669,PAYLOAD,2024-05-07 12:44:32,15.05591047,0.0001324,53.0526,159.4669,92.9795,267.1345,9.7949e-05,1.149e-05,0.0,0 STARLINK-3669,1 51971U 22025R   24128.53093706  .00001149  00000-0  97949-4 0  9991,2 51971  53.0526 159.4669 0001324  92.9795 267.1345 15.05591047120937,6927.829,95.644,550.611,548.777,0.0
51971.0,STARLINK-3669,PAYLOAD,2024-05-08 11:02:50,15.0558658,0.0001333,53.0537,155.2988,91.8487,268.2655,-2.9495e-05,-7.09e-06,0.0,0 STARLINK-3669,1 51971U 22025R   24129.46030245 -.00000709  00000-0 -29495-4 0  9997,2 51971  53.0537 155.2988 0001333  91.8487 268.2655 15.05586580121071,6927.843,95.644,550.631,548.784,0.0
51971.0,STARLINK-3669,PAYLOAD,2024-05-08 19:00:46,15.05605167,0.0001322,53.0544,153.8108,84.5441,275.5698,-0.00026786,-4.182e-05,0.0,0 STARLINK-3669,1 51971U 22025R   24129.79220706 -.00004182  00000-0 -26786-3 0  9994,2 51971  53.0544 153.8108 0001322  84.5441 275.5698 15.05605167121121,6927.786,95.643,550.567,548.735,0.0
51971.0,STARLINK-3669,PAYLOAD,2024-05-09 01:23:09,15.05584384,0.0001201,53.0538,152.6189,92.4897,267.6229,8.1868e-05,9.14e-06,0.0,0 STARLINK-3669,1 51971U 22025R   24130.05774310  .00000914  00000-0  81868-4 0  9990,2 51971  53.0538 152.6189 0001201  92.4897 267.6229 15.05584384121162,6927.849,95.644,550.546,548.882,0.0
51971.0,STARLINK-3669,PAYLOAD,2024-05-09 07:45:30,15.05588885,0.0001397,53.0541,151.4287,95.2841,264.8307,0.00014484,1.832e-05,0.0,0 STARLINK-3669,1 51971U 22025R   24130.32327046  .00001832  00000-0  14484-3 0  9999,2 51971  53.0541 151.4287 0001397  95.2841 264.8307 15.05588885120095,6927.836,95.644,550.668,548.733,0.0
51971.0,STARLINK-3669,PAYLOAD,2024-05-10 07:39:22,15.05587269,0.0001378,53.0533,146.9645,93.6576,266.457,0.00013975,1.758e-05,0.0,0 STARLINK-3669,1 51971U 22025R   24131.31901500  .00001758  00000-0  13975-3 0  9993,2 51971  53.0533 146.9645 0001378  93.6576 266.4570 15.05587269121354,6927.841,95.644,550.66,548.751,0.0
51971.0,STARLINK-3669,PAYLOAD,2024-05-11 04:22:04,15.05587686,0.0001424,53.0532,143.0949,96.1379,263.9772,5.7307e-05,5.56e-06,0.0,0 STARLINK-3669,1 51971U 22025R   24132.18199433  .00000556  00000-0  57307-4 0  9996,2 51971  53.0532 143.0949 0001424  96.1379 263.9772 15.05587686121482,6927.839,95.644,550.691,548.718,0.0
